BANDWAGON-2 OBJECT D    
1 62380U 24247D   26068.52261193  .00011259  00000+0  40119-3 0  9994
2 62380  44.9954 115.6710 0003488 351.1453   8.9368 15.29076102 67732
STARLINK-35550          
1 66267U 25247C   26068.59990003  .00027219  00000+0  92795-3 0  9999
2 66267  53.1601 191.5541 0001087  64.0380 296.0732 15.30193104 21029
